ONEWEB-0362             
1 49288U 21090K   23059.37256751  .00000088  00000+0  18730-3 0  9995
2 49288  87.9332 184.5206 0001519  97.6487 262.4818 13.19723669 68000
ONEWEB-0362             
1 49288U 21090K   23059.37256751  .00000088  00000+0  18730-3 0  9995
2 49288  87.9332 184.5206 0001519  97.6487 262.4818 13.19723669 68820
ONEWEB-0362             
1 49288U 21090K   23059.90328729 -.00000039  00000+0 -13031-3 0  9996
2 49288  87.9332 184.4159 0001514  97.8479 262.2826 13.19722608 68070
ONEWEB-0362             
1 49288U 21090K   23060.88890660  .00000054  00000+0  10207-3 0  9990
2 49288  87.9334 184.2213 0001487  97.7081 262.4221 13.19722804 68202
ONEWEB-0362             
1 49288U 21090K   23061.04053954  .00000148  00000+0  33746-3 0  9993
2 49288  87.9333 184.1914 0001487  97.6310 262.4992 13.19723584 69046
ONEWEB-0362             
1 49288U 21090K   23061.79870962 -.00000029  00000+0 -10360-3 0  9998
2 49288  87.9334 184.0416 0001490  96.9215 263.2087 13.19722807 68324
ONEWEB-0362             
1 49288U 21090K   23062.40524344 -.00000002  00000+0 -38482-4 0  9994
2 49288  87.9334 183.9217 0001484  96.5403 263.5899 13.19724504 68408
ONEWEB-0362             
1 49288U 21090K   23062.40524344 -.00000002  00000+0 -38482-4 0  9994
2 49288  87.9334 183.9217 0001484  96.5403 263.5899 13.19724504 69229
ONEWEB-0362             
1 49288U 21090K   23062.86014610 -.00000050  00000+0 -15676-3 0  9996
2 49288  87.9335 183.8319 0001450  96.0015 264.1283 13.19722947 68467
